NORAD_CAT_ID,OBJECT_NAME,OBJECT_TYPE,EPOCH,MEAN_MOTION,ECCENTRICITY,INCLINATION,RA_OF_ASC_NODE,ARG_OF_PERICENTER,MEAN_ANOMALY,BSTAR,MEAN_MOTION_DOT,MEAN_MOTION_DDOT,TLE_LINE0,TLE_LINE1,TLE_LINE2,SEMIMAJOR_AXIS,PERIOD,APOGEE,PERIGEE,DECAYED
55949.0,STARLINK-5899,PAYLOAD,2023-10-14 19:59:40,14.99371872,0.0002965,70.0002,315.5162,265.0955,94.9866,-0.0012849,-0.0001581,0.0,0 STARLINK-5899,1 55949U 23037AM  23287.83310376 -.00015810  00000-0 -12849-2 0  9993,2 55949  70.0002 315.5162 0002965 265.0955  94.9866 14.99371872 33469,6946.973,96.04,570.898,566.778,0.0
55949.0,STARLINK-5899,PAYLOAD,2023-10-15 04:00:04,14.99290708,0.0002795,69.9977,314.6719,264.2754,95.8087,-9.0612e-05,-1.202e-05,0.0,0 STARLINK-5899,1 55949U 23037AM  23288.16671587 -.00001202  00000-0 -90612-4 0  9990,2 55949  69.9977 314.6719 0002795 264.2754  95.8087 14.99290708 33513,6947.224,96.045,571.03,567.147,0.0
55949.0,STARLINK-5899,PAYLOAD,2023-10-15 12:00:26,14.9929016,0.0002881,69.9981,313.8309,268.1947,91.8883,-0.00012106,-1.574e-05,0.0,0 STARLINK-5899,1 55949U 23037AM  23288.50030323 -.00001574  00000-0 -12106-3 0  9998,2 55949  69.9981 313.8309 0002881 268.1947  91.8883 14.99290160 33227,6947.225,96.045,571.092,567.089,0.0
55949.0,STARLINK-5899,PAYLOAD,2023-10-16 08:49:22,14.99297982,0.0002942,69.9984,311.6399,275.3545,84.7279,1.0871e-05,3.9e-07,0.0,0 STARLINK-5899,1 55949U 23037AM  23289.36761576  .00000039  00000-0  10871-4 0  9995,2 55949  69.9984 311.6399 0002942 275.3545  84.7279 14.99297982 33697,6947.201,96.045,571.11,567.022,0.0
55949.0,STARLINK-5899,PAYLOAD,2023-10-16 12:01:30,14.99301271,0.0002908,69.9984,311.3037,271.6748,88.4079,2.2004e-05,1.75e-06,0.0,0 STARLINK-5899,1 55949U 23037AM  23289.50104668  .00000175  00000-0  22004-4 0  9996,2 55949  69.9984 311.3037 0002908 271.6748  88.4079 14.99301271 33370,6947.191,96.045,571.076,567.036,0.0
55949.0,STARLINK-5899,PAYLOAD,2023-10-17 12:02:34,14.99304212,0.0002659,69.9996,308.777,266.8811,93.2045,0.00026741,3.18e-05,0.0,0 STARLINK-5899,1 55949U 23037AM  23290.50179054  .00003180  00000-0  26741-3 0  9999,2 55949  69.9996 308.7770 0002659 266.8811  93.2045 14.99304212 33866,6947.182,96.045,570.894,567.2,0.0
55949.0,STARLINK-5899,PAYLOAD,2023-10-18 02:27:14,14.99297976,0.0002546,70.0005,307.2614,256.542,103.5456,2.5236e-05,2.15e-06,0.0,0 STARLINK-5899,1 55949U 23037AM  23291.10225212  .00000215  00000-0  25236-4 0  9999,2 55949  70.0005 307.2614 0002546 256.5420 103.5456 14.99297976 33610,6947.201,96.045,570.835,567.297,0.0
55949.0,STARLINK-5899,PAYLOAD,2023-10-18 10:27:36,14.9930164,0.0002739,69.9991,306.4186,266.1149,93.9698,7.6135e-06,-1e-08,0.0,0 STARLINK-5899,1 55949U 23037AM  23291.43583361 -.00000001  00000-0  76135-5 0  9996,2 55949  69.9991 306.4186 0002739 266.1149  93.9698 14.99301640 34003,6947.19,96.045,570.958,567.152,0.0
55949.0,STARLINK-5899,PAYLOAD,2023-10-19 10:28:40,14.99310362,0.0002665,69.9992,303.8911,269.4826,90.6028,-8.1174e-05,-1.087e-05,0.0,0 STARLINK-5899,1 55949U 23037AM  23292.43657908 -.00001087  00000-0 -81174-4 0  9990,2 55949  69.9992 303.8911 0002665 269.4826  90.6028 14.99310362 34155,6947.163,96.044,570.879,567.176,0.0
55949.0,STARLINK-5899,PAYLOAD,2023-10-19 18:29:02,14.99301251,0.0002433,69.9999,303.0488,267.9753,92.1128,-6.4527e-05,-8.83e-06,0.0,0 STARLINK-5899,1 55949U 23037AM  23292.77016810 -.00000883  00000-0 -64527-4 0  9994,2 55949  69.9999 303.0488 0002433 267.9753  92.1128 14.99301251 34209,6947.191,96.045,570.746,567.366,0.0
55949.0,STARLINK-5899,PAYLOAD,2023-10-20 04:05:29,14.99288624,0.0002719,69.9989,302.0369,267.884,92.2008,-0.00010318,-1.356e-05,0.0,0 STARLINK-5899,1 55949U 23037AM  23293.17047859 -.00001356  00000-0 -10318-3 0  9990,2 55949  69.9989 302.0369 0002719 267.8840  92.2008 14.99288624 34260,6947.23,96.046,570.984,567.206,0.0
55949.0,STARLINK-5899,PAYLOAD,2023-10-20 10:29:47,14.99282188,0.0002778,69.9992,301.3644,270.6468,89.4373,-0.00015629,-2.005e-05,0.0,0 STARLINK-5899,1 55949U 23037AM  23293.43735419 -.00002005  00000-0 -15629-3 0  9997,2 55949  69.9992 301.3644 0002778 270.6468  89.4373 14.99282188 34302,6947.25,96.046,571.045,567.185,0.0
55949.0,STARLINK-5899,PAYLOAD,2023-10-20 21:42:17,14.99290134,0.000294,69.9988,300.1839,267.7556,92.3267,-7.3512e-05,-9.93e-06,0.0,0 STARLINK-5899,1 55949U 23037AM  23293.90436758 -.00000993  00000-0 -73512-4 0  9993,2 55949  69.9988 300.1839 0002940 267.7556  92.3267 14.99290134 34031,6947.225,96.045,571.133,567.048,0.0
55949.0,STARLINK-5899,PAYLOAD,2023-10-21 02:30:30,14.99290684,0.0002978,69.9985,299.6786,268.176,91.9059,-5.7705e-05,-8e-06,0.0,0 STARLINK-5899,1 55949U 23037AM  23294.10451851 -.00000800  00000-0 -57705-4 0  9990,2 55949  69.9985 299.6786 0002978 268.1760  91.9059 14.99290684 34409,6947.224,96.045,571.158,567.02,0.0
55949.0,STARLINK-5899,PAYLOAD,2023-10-21 10:30:51,14.99294358,0.0002974,69.9985,298.8365,268.406,91.6759,4.2528e-06,-4.2e-07,0.0,0 STARLINK-5899,1 55949U 23037AM  23294.43810054 -.00000042  00000-0  42528-5 0  9995,2 55949  69.9985 298.8365 0002974 268.4060  91.6759 14.99294358 34119,6947.212,96.045,571.143,567.011,0.0
55949.0,STARLINK-5899,PAYLOAD,2023-10-22 04:07:39,14.99295214,0.000301,69.9981,296.9821,269.5545,90.527,0.00017911,2.098e-05,0.0,0 STARLINK-5899,1 55949U 23037AM  23295.17198206  .00002098  00000-0  17911-3 0  9993,2 55949  69.9981 296.9821 0003010 269.5545  90.5270 14.99295214 34560,6947.21,96.045,571.166,566.984,0.0
55949.0,STARLINK-5899,PAYLOAD,2023-10-22 10:31:56,14.99300991,0.0002917,69.9984,296.3089,268.1186,91.9639,0.00025355,3.01e-05,0.0,0 STARLINK-5899,1 55949U 23037AM  23295.43884371  .00003010  00000-0  25355-3 0  9993,2 55949  69.9984 296.3089 0002917 268.1186  91.9639 14.99300991 34602,6947.192,96.045,571.083,567.03,0.0
55949.0,STARLINK-5899,PAYLOAD,2023-10-22 16:56:13,14.99286628,0.0002778,69.9987,295.636,274.8403,85.2439,0.00052376,6.318e-05,0.0,0 STARLINK-5899,1 55949U 23037AM  23295.70571466  .00006318  00000-0  52376-3 0  9998,2 55949  69.9987 295.6360 0002778 274.8403  85.2439 14.99286628 34648,6947.236,96.046,571.031,567.171,0.0
55949.0,STARLINK-5899,PAYLOAD,2023-10-23 04:08:55,14.99148189,0.0002254,69.9987,294.4557,254.2868,105.8043,-0.0015858,-0.00019367,0.0,0 STARLINK-5899,1 55949U 23037AM  23296.17286950 -.00019367  00000-0 -15858-2 0  9994,2 55949  69.9987 294.4557 0002254 254.2868 105.8043 14.99148189 34716,6947.664,96.055,571.095,567.963,0.0
55949.0,STARLINK-5899,PAYLOAD,2023-10-23 10:33:40,14.98842121,0.0002012,69.999,293.7822,300.5632,59.5329,-0.0047533,-0.00057098,0.0,0 STARLINK-5899,1 55949U 23037AM  23296.44004775 -.00057098  00000-0 -47533-2 0  9995,2 55949  69.9990 293.7822 0002012 300.5632  59.5329 14.98842121 34755,6948.61,96.074,571.873,569.077,0.0
55949.0,STARLINK-5899,PAYLOAD,2023-10-23 16:58:14,14.98686173,0.0002748,69.9989,293.1107,263.4305,96.6541,-0.0062232,-0.00074247,0.0,0 STARLINK-5899,1 55949U 23037AM  23296.70711593 -.00074247  00000-0 -62232-2 0  9995,2 55949  69.9989 293.1107 0002748 263.4305  96.6541 14.98686173 34798,6949.092,96.084,572.866,569.047,0.0
55949.0,STARLINK-5899,PAYLOAD,2023-10-24 02:34:48,14.98725423,0.0002895,69.9985,292.1011,266.0661,94.0167,-0.005367,-0.00064202,0.0,0 STARLINK-5899,1 55949U 23037AM  23297.10750675 -.00064202  00000-0 -53670-2 0  9990,2 55949  69.9985 292.1011 0002895 266.0661  94.0167 14.98725423 34859,6948.97,96.082,572.847,568.824,0.0
55949.0,STARLINK-5899,PAYLOAD,2023-10-24 08:59:15,14.9869098,0.000264,69.9992,291.4283,252.3015,107.7856,-0.0051027,-0.00061017,0.0,0 STARLINK-5899,1 55949U 23037AM  23297.37448778 -.00061017  00000-0 -51027-2 0  9992,2 55949  69.9992 291.4283 0002640 252.3015 107.7856 14.98690980 34899,6949.077,96.084,572.776,569.107,0.0
55949.0,STARLINK-5899,PAYLOAD,2023-10-25 10:37:09,14.98582526,0.000326,69.9994,288.7333,260.9642,99.1148,-0.0041568,-0.00049666,0.0,0 STARLINK-5899,1 55949U 23037AM  23298.44247067 -.00049666  00000-0 -41568-2 0  9994,2 55949  69.9994 288.7333 0003260 260.9642  99.1148 14.98582526 35059,6949.412,96.091,573.543,569.012,0.0
55949.0,STARLINK-5899,PAYLOAD,2023-10-26 04:14:41,14.98318479,0.0002598,69.9997,286.8832,262.0216,98.0648,0.00036668,4.284e-05,0.0,0 STARLINK-5899,1 55949U 23037AM  23299.17686829  .00004284  00000-0  36668-3 0  9999,2 55949  69.9997 286.8832 0002598 262.0216  98.0648 14.98318479 35167,6950.229,96.108,573.899,570.288,0.0
55949.0,STARLINK-5899,PAYLOAD,2023-10-26 14:00:01,14.98349328,0.0003051,69.9996,285.8579,270.422,121.5655,-0.0039992,-0.00047513,0.0,0 STARLINK-5899,1 55949U 23037AM  23299.58334491 -.00047513  00000-0 -39992-2 0  9995,2 55949  69.9996 285.8579 0003051 270.4220 121.5655 14.98349328  5856,6950.133,96.106,574.119,569.878,0.0
55949.0,STARLINK-5899,PAYLOAD,2023-10-26 16:00:00,14.98334942,0.0003046,69.9997,285.6478,268.3282,213.0351,-0.0020214,-0.00024132,0.0,0 STARLINK-5899,1 55949U 23037AM  23299.66667824 -.00024132  00000-0 -20214-2 0  9992,2 55949  69.9997 285.6478 0003046 268.3282 213.0351 14.98334942  5879,6950.178,96.107,574.16,569.926,0.0
55949.0,STARLINK-5899,PAYLOAD,2023-10-27 00:00:00,14.98346939,0.0003086,70.0001,284.8073,265.2444,213.5927,-0.00012574,-1.594e-05,0.0,0 STARLINK-5899,1 55949U 23037AM  23300.00001157 -.00001594  00000-0 -12574-3 0  9992,2 55949  70.0001 284.8073 0003086 265.2444 213.5927 14.98346939 35281,6950.141,96.106,574.15,569.861,0.0
55949.0,STARLINK-5899,PAYLOAD,2023-10-27 04:16:42,14.98332432,0.0002848,69.9991,284.3582,270.02,90.0633,1.6532e-05,1.04e-06,0.0,0 STARLINK-5899,1 55949U 23037AM  23300.17826579  .00000104  00000-0  16532-4 0  9996,2 55949  69.9991 284.3582 0002848 270.0200  90.0633 14.98332432 35314,6950.185,96.107,574.03,570.071,0.0
55949.0,STARLINK-5899,PAYLOAD,2023-10-27 09:05:05,14.98343573,0.0002676,69.9994,283.8524,266.4109,93.6744,-8.5636e-05,-1.115e-05,0.0,0 STARLINK-5899,1 55949U 23037AM  23300.37854003 -.00001115  00000-0 -85636-4 0  9997,2 55949  69.9994 283.8524 0002676 266.4109  93.6744 14.98343573 35346,6950.151,96.106,573.876,570.156,0.0
